[{"OBJECT_NAME":"STARLINK-35006","OBJECT_ID":"2025-184M","EPOCH":"2025-11-07T03:46:08.288832","MEAN_MOTION":15.05656987,"ECCENTRICITY":7.552e-5,"INCLINATION":97.6042,"RA_OF_ASC_NODE":1.8829,"ARG_OF_PERICENTER":83.3592,"MEAN_ANOMALY":276.7721,"EPHEMERIS_TYPE":0,"CLASSIFICATION_TYPE":"U","NORAD_CAT_ID":65284,"ELEMENT_SET_NO":999,"REV_AT_EPOCH":1286,"BSTAR":0.00026081622,"MEAN_MOTION_DOT":3.705e-5,"MEAN_MOTION_DDOT":0},{"OBJECT_NAME":"STARLINK-34995","OBJECT_ID":"2025-184N","EPOCH":"2025-11-07T02:30:21.426624","MEAN_MOTION":15.05672928,"ECCENTRICITY":0.00038721,"INCLINATION":97.5913,"RA_OF_ASC_NODE":1.7787,"ARG_OF_PERICENTER":134.7437,"MEAN_ANOMALY":225.4105,"EPHEMERIS_TYPE":0,"CLASSIFICATION_TYPE":"U","NORAD_CAT_ID":65285,"ELEMENT_SET_NO":999,"REV_AT_EPOCH":1285,"BSTAR":0.0011946971,"MEAN_MOTION_DOT":0.00017232,"MEAN_MOTION_DDOT":0},{"OBJECT_NAME":"STARLINK-35048","OBJECT_ID":"2025-184P","EPOCH":"2025-11-07T03:54:06.697728","MEAN_MOTION":15.05658793,"ECCENTRICITY":6.961e-5,"INCLINATION":97.6037,"RA_OF_ASC_NODE":1.8746,"ARG_OF_PERICENTER":96.1726,"MEAN_ANOMALY":263.9581,"EPHEMERIS_TYPE":0,"CLASSIFICATION_TYPE":"U","NORAD_CAT_ID":65286,"ELEMENT_SET_NO":999,"REV_AT_EPOCH":1281,"BSTAR":0.00094050183,"MEAN_MOTION_DOT":0.00013539,"MEAN_MOTION_DDOT":0},{"OBJECT_NAME":"STARLINK-35007","OBJECT_ID":"2025-184Q","EPOCH":"2025-11-07T02:42:19.848672","MEAN_MOTION":15.05719504,"ECCENTRICITY":0.0003233,"INCLINATION":97.6027,"RA_OF_ASC_NODE":1.7849,"ARG_OF_PERICENTER":118.8749,"MEAN_ANOMALY":241.2803,"EPHEMERIS_TYPE":0,"CLASSIFICATION_TYPE":"U","NORAD_CAT_ID":65287,"ELEMENT_SET_NO":999,"REV_AT_EPOCH":1279,"BSTAR":0.0022674993,"MEAN_MOTION_DOT":0.00032872,"MEAN_MOTION_DDOT":0},{"OBJECT_NAME":"STARLINK-35018","OBJECT_ID":"2025-184R","EPOCH":"2025-11-07T03:34:10.803360","MEAN_MOTION":15.056614,"ECCENTRICITY":0.00013642,"INCLINATION":97.6052,"RA_OF_ASC_NODE":1.8954,"ARG_OF_PERICENTER":93.1675,"MEAN_ANOMALY":266.9708,"EPHEMERIS_TYPE":0,"CLASSIFICATION_TYPE":"U","NORAD_CAT_ID":65288,"ELEMENT_SET_NO":999,"REV_AT_EPOCH":1286,"BSTAR":0.00053372871,"MEAN_MOTION_DOT":7.651e-5,"MEAN_MOTION_DDOT":0},{"OBJECT_NAME":"STARLINK-34845","OBJECT_ID":"2025-184S","EPOCH":"2025-11-07T03:22:13.309248","MEAN_MOTION":15.05658265,"ECCENTRICITY":0.00014556,"INCLINATION":97.6043,"RA_OF_ASC_NODE":1.9047,"ARG_OF_PERICENTER":79.0326,"MEAN_ANOMALY":281.1064,"EPHEMERIS_TYPE":0,"CLASSIFICATION_TYPE":"U","NORAD_CAT_ID":65289,"ELEMENT_SET_NO":999,"REV_AT_EPOCH":1286,"BSTAR":0.00035315158,"MEAN_MOTION_DOT":5.04e-5,"MEAN_MOTION_DDOT":0},{"OBJECT_NAME":"STARLINK-34984","OBJECT_ID":"2025-184T","EPOCH":"2025-11-07T02:06:27.179712","MEAN_MOTION":15.05657958,"ECCENTRICITY":0.00010719,"INCLINATION":97.6046,"RA_OF_ASC_NODE":1.8212,"ARG_OF_PERICENTER":93.9738,"MEAN_ANOMALY":266.1612,"EPHEMERIS_TYPE":0,"CLASSIFICATION_TYPE":"U","NORAD_CAT_ID":65290,"ELEMENT_SET_NO":999,"REV_AT_EPOCH":1285,"BSTAR":0.0002786644,"MEAN_MOTION_DOT":3.963e-5,"MEAN_MOTION_DDOT":0},{"OBJECT_NAME":"STARLINK-35002","OBJECT_ID":"2025-184U","EPOCH":"2025-11-07T02:58:16.920480","MEAN_MOTION":15.05651006,"ECCENTRICITY":6.137e-5,"INCLINATION":97.6037,"RA_OF_ASC_NODE":1.7712,"ARG_OF_PERICENTER":116.5067,"MEAN_ANOMALY":243.6223,"EPHEMERIS_TYPE":0,"CLASSIFICATION_TYPE":"U","NORAD_CAT_ID":65291,"ELEMENT_SET_NO":999,"REV_AT_EPOCH":1285,"BSTAR":1.6869671e-5,"MEAN_MOTION_DOT":1.83e-6,"MEAN_MOTION_DDOT":0},{"OBJECT_NAME":"STARLINK-35017","OBJECT_ID":"2025-184V","EPOCH":"2025-11-07T03:14:14.978976","MEAN_MOTION":15.05654659,"ECCENTRICITY":0.00018199,"INCLINATION":97.6046,"RA_OF_ASC_NODE":1.911,"ARG_OF_PERICENTER":91.9099,"MEAN_ANOMALY":268.2336,"EPHEMERIS_TYPE":0,"CLASSIFICATION_TYPE":"U","NORAD_CAT_ID":65292,"ELEMENT_SET_NO":999,"REV_AT_EPOCH":1281,"BSTAR":0.00012773229,"MEAN_MOTION_DOT":1.783e-5,"MEAN_MOTION_DDOT":0},{"OBJECT_NAME":"STARLINK-34951","OBJECT_ID":"2025-184W","EPOCH":"2025-11-07T03:58:05.790720","MEAN_MOTION":15.05657989,"ECCENTRICITY":9.8e-5,"INCLINATION":97.6044,"RA_OF_ASC_NODE":1.8716,"ARG_OF_PERICENTER":130.9898,"MEAN_ANOMALY":229.1414,"EPHEMERIS_TYPE":0,"CLASSIFICATION_TYPE":"U","NORAD_CAT_ID":65293,"ELEMENT_SET_NO":999,"REV_AT_EPOCH":1286,"BSTAR":0.0005230992,"MEAN_MOTION_DOT":7.497e-5,"MEAN_MOTION_DDOT":0},{"OBJECT_NAME":"STARLINK-34613","OBJECT_ID":"2025-184X","EPOCH":"2025-11-07T02:38:22.555392","MEAN_MOTION":15.05656402,"ECCENTRICITY":0.00015383,"INCLINATION":97.6024,"RA_OF_ASC_NODE":1.7879,"ARG_OF_PERICENTER":78.2473,"MEAN_ANOMALY":281.8926,"EPHEMERIS_TYPE":0,"CLASSIFICATION_TYPE":"U","NORAD_CAT_ID":65294,"ELEMENT_SET_NO":999,"REV_AT_EPOCH":1285,"BSTAR":0.00031906722,"MEAN_MOTION_DOT":4.547e-5,"MEAN_MOTION_DDOT":0},{"OBJECT_NAME":"STARLINK-34834","OBJECT_ID":"2025-184Y","EPOCH":"2025-11-07T03:06:15.350112","MEAN_MOTION":15.05655245,"ECCENTRICITY":0.00011145,"INCLINATION":97.6045,"RA_OF_ASC_NODE":1.7663,"ARG_OF_PERICENTER":110.6101,"MEAN_ANOMALY":249.5245,"EPHEMERIS_TYPE":0,"CLASSIFICATION_TYPE":"U","NORAD_CAT_ID":65295,"ELEMENT_SET_NO":999,"REV_AT_EPOCH":1285,"BSTAR":0.00026103191,"MEAN_MOTION_DOT":3.708e-5,"MEAN_MOTION_DDOT":0},{"OBJECT_NAME":"STARLINK-34872","OBJECT_ID":"2025-184Z","EPOCH":"2025-11-07T02:50:17.480832","MEAN_MOTION":15.05682067,"ECCENTRICITY":3.473e-5,"INCLINATION":97.6042,"RA_OF_ASC_NODE":1.7793,"ARG_OF_PERICENTER":52.4452,"MEAN_ANOMALY":307.6806,"EPHEMERIS_TYPE":0,"CLASSIFICATION_TYPE":"U","NORAD_CAT_ID":65296,"ELEMENT_SET_NO":999,"REV_AT_EPOCH":1285,"BSTAR":0.00086714545,"MEAN_MOTION_DOT":0.00012484,"MEAN_MOTION_DDOT":0},{"OBJECT_NAME":"STARLINK-34899","OBJECT_ID":"2025-189A","EPOCH":"2025-11-06T16:15:45.622368","MEAN_MOTION":15.30213875,"ECCENTRICITY":8.254e-5,"INCLINATION":53.1621,"RA_OF_ASC_NODE":58.0651,"ARG_OF_PERICENTER":15.0451,"MEAN_ANOMALY":345.0574,"EPHEMERIS_TYPE":0,"CLASSIFICATION_TYPE":"U","NORAD_CAT_ID":65323,"ELEMENT_SET_NO":999,"REV_AT_EPOCH":1227,"BSTAR":0.00099222729,"MEAN_MOTION_DOT":0.00029156,"MEAN_MOTION_DDOT":0},{"OBJECT_NAME":"STARLINK-34196","OBJECT_ID":"2025-189B","EPOCH":"2025-11-06T16:30:49.388832","MEAN_MOTION":15.3964026,"ECCENTRICITY":0.00011046,"INCLINATION":53.163,"RA_OF_ASC_NODE":58.1504,"ARG_OF_PERICENTER":49.344,"MEAN_ANOMALY":310.7661,"EPHEMERIS_TYPE":0,"CLASSIFICATION_TYPE":"U","NORAD_CAT_ID":65324,"ELEMENT_SET_NO":999,"REV_AT_EPOCH":1222,"BSTAR":0.0017244185,"MEAN_MOTION_DOT":0.00069251,"MEAN_MOTION_DDOT":0},{"OBJECT_NAME":"STARLINK-34911","OBJECT_ID":"2025-189C","EPOCH":"2025-11-06T15:44:09.135456","MEAN_MOTION":15.39630982,"ECCENTRICITY":0.00013216,"INCLINATION":53.1603,"RA_OF_ASC_NODE":58.6605,"ARG_OF_PERICENTER":73.0829,"MEAN_ANOMALY":287.0321,"EPHEMERIS_TYPE":0,"CLASSIFICATION_TYPE":"U","NORAD_CAT_ID":65325,"ELEMENT_SET_NO":999,"REV_AT_EPOCH":1226,"BSTAR":0.00076753198,"MEAN_MOTION_DOT":0.00030435,"MEAN_MOTION_DDOT":0}]
