STARLINK-35006          
1 65284U 25184M   25311.15704038  .00003705  00000+0  26082-3 0  9990
2 65284  97.6042   1.8829 0000755  83.3592 276.7721 15.05656987 12861
STARLINK-34995          
1 65285U 25184N   25311.10441466  .00017232  00000+0  11947-2 0  9992
2 65285  97.5913   1.7787 0003872 134.7437 225.4105 15.05672928 12851
STARLINK-35048          
1 65286U 25184P   25311.16257752  .00013539  00000+0  94050-3 0  9995
2 65286  97.6037   1.8746 0000696  96.1726 263.9581 15.05658793 12814
STARLINK-35007          
1 65287U 25184Q   25311.11272973  .00032872  00000+0  22675-2 0  9997
2 65287  97.6027   1.7849 0003233 118.8749 241.2803 15.05719504 12795
STARLINK-35018          
1 65288U 25184R   25311.14873615  .00007651  00000+0  53373-3 0  9998
2 65288  97.6052   1.8954 0001364  93.1675 266.9708 15.05661400 12865
STARLINK-34845          
1 65289U 25184S   25311.14043182  .00005040  00000+0  35315-3 0  9993
2 65289  97.6043   1.9047 0001455  79.0326 281.1064 15.05658265 12866
STARLINK-34984          
1 65290U 25184T   25311.08781458  .00003963  00000+0  27866-3 0  9997
2 65290  97.6046   1.8212 0001071  93.9738 266.1612 15.05657958 12859
STARLINK-35002          
1 65291U 25184U   25311.12380695  .00000183  00000+0  16870-4 0  9996
2 65291  97.6037   1.7712 0000613 116.5067 243.6223 15.05651006 12858
STARLINK-35017          
1 65292U 25184V   25311.13489559  .00001783  00000+0  12773-3 0  9991
2 65292  97.6046   1.9110 0001819  91.9099 268.2336 15.05654659 12814
STARLINK-34951          
1 65293U 25184W   25311.16534480  .00007497  00000+0  52310-3 0  9998
2 65293  97.6044   1.8716 0000980 130.9898 229.1414 15.05657989 12860
STARLINK-34613          
1 65294U 25184X   25311.10998328  .00004547  00000+0  31907-3 0  9990
2 65294  97.6024   1.7879 0001538  78.2473 281.8926 15.05656402 12852
STARLINK-34834          
1 65295U 25184Y   25311.12934433  .00003708  00000+0  26103-3 0  9990
2 65295  97.6045   1.7663 0001114 110.6101 249.5245 15.05655245 12855
STARLINK-34872          
1 65296U 25184Z   25311.11825788  .00012484  00000+0  86715-3 0  9998
2 65296  97.6042   1.7793 0000347  52.4452 307.6806 15.05682067 12857
STARLINK-34899          
1 65323U 25189A   25310.67761137  .00029156  00000+0  99223-3 0  9993
2 65323  53.1621  58.0651 0000825  15.0451 345.0574 15.30213875 12270
STARLINK-34196          
1 65324U 25189B   25310.68807163  .00069251  00000+0  17244-2 0  9997
2 65324  53.1630  58.1504 0001104  49.3440 310.7661 15.39640260 12220
STARLINK-34911          
1 65325U 25189C   25310.65566129  .00030435  00000+0  76753-3 0  9992
2 65325  53.1603  58.6605 0001321  73.0829 287.0321 15.39630982 12267
